#dP2023  6 18  0  0  0.00000000      96 __u+U IGS14 FIT  IAC
## 2267      0.00000000   900.00000000 60113 0.0000000000000
+  119   C06C07C08C09C10C11C12C13C14C16C19C20C21C22C23C24C25
+        C26C27C28C29C30C32C33C34C35C36C37C38C39C40C41C42C43
+        C44C45C46E02E03E04E05E07E08E09E10E11E12E13E14E15E18
+        E19E21E24E25E26E27E30E31E33E34E36G01G02G03G04G05G06
+        G07G08G09G10G11G12G13G14G15G16G17G18G19G20G21G22G23
+        G24G25G26G27G28G29G30G31G32J02J03J04R01R02R03R04R05
+        R07R08R09R11R12R13R14R15R16R17R18R19R20R21R22R24R25
++         7  8  7  7  8  7  7 12  7  7  6  6  6  6  6  6  6
++         6  5  5  6  6  6  6  6  6  6  6  6  6  6  6  6  6
++         6  6  6  4  4  4  4  4  4  4  4  4  4  4  4  4  4
++         5  4  4  4  4  4  4  4  5  4  4  3  3  3  4  4  4
++         4  3  4  3  4  3  4  3  3  4  4  3  4  4  3  4  3
++         3  4  4  3  4  4  3  4  3  9  9  9  8  7  7  7  7
++         6  6  7  7  7  8  7  7  7  7  7  8  8  7  6  7  8
%c M  cc GPS ccc cccc cccc cccc cccc ccccc ccccc ccccc ccccc
%c cc cc ccc ccc cccc cccc cccc cccc ccccc ccccc ccccc ccccc
%f  1.2500000  1.025000000  0.00000000000  0.000000000000000
%f  0.0000000  0.000000000  0.00000000000  0.000000000000000
%i    0    0    0    0      0      0      0      0         0
%i    0    0    0    0      0      0      0      0         0
/* INFORMATION & ANALYSIS CENTER (IAC)            FINAL DATA
/* S/V CLOCKS ARE ALIGNED TO GNSS TIME                      
/* G:C1WC2W R:C1PC2P E:C1XC5X C:C2IC6I J:C1CC2S             
/* PCV:IGS20_2247 OL/AL:FES2004  NONE     YN ORB:CoN CLK:CoN
*  2023 06 18 13 15  0.00000000
PC06  -2474.819929  35979.221152  22098.835382   -175.824879
PC07 -11609.533437  26273.190142 -30868.201756   -191.115137
PC08 -17077.973984  36257.198798  12813.986856    455.713808
PC09   3902.021764  40077.490723  13850.940403    519.800350
PC10  -3678.061994  27030.692453 -31868.231100    -89.470210
PC11  20113.005723  12976.565198  14387.118182    680.592997
PC12  13934.677317  23964.298096  -3123.404725    721.923981
PC13 -10291.922930  36104.702619  19041.247603    298.694729
PC14  26242.987312   3358.896689   8788.719801    428.899468
PC16  -3441.328353  34936.100886  23817.841233     38.597857
PC19 -27742.914653   3131.548889    476.701874   -925.113958
PC20 -21871.711768  -8228.376240 -15270.919233    494.969858
PC21   2148.727040  15565.274411  23076.343436   -924.717113
PC22 -17982.513582  13242.163746  16754.011829   -435.344249
PC23  15507.739613 -22146.311745  -6902.337530   -961.824244
PC24  10500.900825  14391.157051 -21480.600764     76.296333
PC25  18419.865532  -6968.816495 -19783.658064    149.915658
PC26  -2111.951114  25483.129009 -11149.044710   -136.491433
PC27  -7938.525192 -24445.064821  10835.784183    156.964630
PC28   6835.087534 -16374.299705  21539.059353    116.643199
PC29 -19332.305432  -2291.757698 -20004.131820    135.691693
PC30 -19504.710211 -19145.451780  -5600.086853     -1.316803
PC32  -2230.078464 -15551.421846 -23049.118878   -547.541903
PC33  27705.310504  -3212.807900   -340.271356   -897.350708
PC34  19914.161601  18332.585414   6813.222563    195.817644
PC35  -6757.939157  16256.078404 -21675.951967    605.546998
PC36 -18477.113191   5691.933893  20149.524284   -376.454717
PC37   3541.863747 -25739.723794  10226.047131   -786.285685
PC38 -20723.152171  36339.152668   4753.695529     85.926857
PC39  -5638.538064  31556.545671  27551.202444     -3.377705
PC40 -16484.702880  19966.954024 -33352.566811    -26.622033
PC41  18522.870079 -13061.900794 -16218.201666   -918.778410
PC42  20765.731346   9053.178237  16318.322691   -644.702246
PC43  19704.550451   3163.569675  19498.791763     26.755068
PC44   8622.018050  24179.581290 -10996.137902    141.948550
PC45 -15289.961800  22414.943006   6485.558517   -111.873379
PC46 -11292.817042 -13009.859780  21963.294364    -62.435916
PE02  26366.703078 -11016.192175  -7744.855135     44.765380
PE03  24394.667698  -1073.531778 -16717.025739    -27.580344
PE04  -8464.472963  14783.838342  24218.272495   -147.518227
PE05  26310.712225  13534.675579    745.015724    -56.855143
PE07 -12546.734442 -20077.985457 -17764.537375    -53.576612
PE08   8713.816757 -14485.507709 -24292.554808   -100.920323
PE09  12421.962842  19968.134842  17972.020380    -54.436534
PE10   -943.544448  29221.339746  -4628.504338   -542.121540
PE11   5705.956820  28445.388205   5892.757933   2255.874472
PE12  -7023.900553  25446.741573 -13419.077802   -584.587121
PE13  -5300.756584 -28650.866923  -5201.109722    -19.288419
PE14  -1130.959555 -18543.414330  18151.525667    257.603706
PE15   7137.287307 -25225.964806  13735.137327    -30.409887
PE18 -10995.690385  16363.628916 -23493.971952    196.177741
PE19 -25572.265575  -1180.421573  14874.905013  -2271.649195
PE21 -19995.547210  -4347.103201  21390.258387   -535.709134
PE24    997.531066  18437.974955 -23143.244603   -161.798589
PE25  19754.097642   4634.500799 -21545.142354   -606.956410
PE26 -14793.719083 -14502.583864 -21146.295660    137.719746
PE27  -1739.302506 -18087.555527  23370.812163    -77.737050
PE30  17813.156461 -20877.875265  11092.658332   -265.463776
PE31 -17343.564793  21017.560134 -11554.177479   -526.148827
PE33 -15255.652288   6947.711936 -24400.970357   -443.003106
PE34  15208.086820  -7143.758228  24357.044993    -51.473870
PE36  14461.400127  15274.152336  20824.332279    -73.099435
PG01  13257.407804  -9837.224041  20375.910209    177.646530
PG02  14937.534746  -3740.673215  22138.075633   -584.623843
PG03  23091.152515 -12848.757251   1772.198187   -265.985701
PG04  18413.620986  -4319.381850 -18681.095465     71.674769
PG05 -21191.097936    913.716227 -16235.849303   -131.581164
PG06  -5437.940641 -24825.941984  -7486.193798    584.355153
PG07   6687.408843 -23101.393628 -10249.348348    149.019982
PG08  24470.235055   4681.535240   9677.291783   -127.990460
PG09   9140.805113 -12498.714718 -21653.994015   -132.885029
PG10  -1211.840721  16954.019733  20500.750416    -41.666943
PG11 -12740.740911 -13783.586647 -18802.415175   -240.443830
PG12 -24360.921612   9366.219025   4406.949960   -390.102212
PG13 -22798.592754 -13157.071988   4132.037138    535.658385
PG14   4788.400481 -18216.659202  18679.800376     94.608315
PG15 -24697.936550  -1535.639531   9527.616647     49.993152
PG16  19267.937973   4449.850589 -18246.733982   -490.208047
PG17  -6799.473862 -18633.925332  18040.478866    718.754823
PG18  -5190.388836  24683.485951  -8057.757897   -312.410380
PG19 -14318.824613 -19259.198341  11494.727398    332.239730
PG20 -14996.107417  -6659.200070 -20815.635338    427.344314
PG21  15581.309355    528.597862  22089.455201    153.000422
PG22  16559.465152  18743.305387   9621.171356    499.773049
PG23 -13291.391461  19078.314278  12695.688355     34.380200
PG24 -14952.043836   5304.253583  20901.644905   -229.042824
PG25 -18804.654862  17479.309343  -6551.797689    450.606788
PG26   9760.317548  12500.376862 -21427.202014    238.758784
PG27  23274.080289  13232.730207  -1090.853106     14.052039
PG28   5509.135012  25399.946126  -5504.877195     83.441105
PG29 -11895.618023   9805.767852 -21694.998273   -603.175120
PG30     46.138434 -26395.049780   -856.578281   -510.226605
PG31  11349.864212  17990.007252 -15805.081223   -218.406017
PG32  10441.221429  18418.534129  16340.023155   -502.904161
PJ02 -36216.381587  20588.685526  -2170.745962     -0.624179
PJ03 -18697.855987  26615.682629 -22257.538305      6.848258
PJ04 -28377.787384  29242.446811  17211.036322     95.548525
PR01  24898.786482   3470.712319   4275.606406     59.677492
PR02  21124.614645  -4436.773528 -13595.586666    -22.679950
PR03   5086.094979 -10323.842359 -22721.637141     79.911671
PR04 -13351.554886 -10166.717810 -19175.701812    191.689037
PR05 -24515.262437  -4713.906607  -5174.342325    114.371450
PR07  -4072.248932  10498.020898  22926.548722     58.301754
PR08  13584.294209  10187.717206  19106.751279    -71.318181
PR09 -16702.328540  16685.196938   9785.143815    126.481802
PR11    811.582394  15796.331461 -20004.895368    -82.706278
PR12  13333.026391  -1072.490828 -21693.159638     28.256069
PR13  16873.280884 -15218.163743 -11599.724135    -36.223665
PR14  10476.306080 -22004.546963   7509.115099     24.826353
PR15  -1741.256458 -14964.743748  20604.110857     88.503805
PR16 -13080.899688    941.853965  21898.775021     15.766719
PR17  -2060.007505 -20600.972586  14930.177756    640.117806
PR18 -10828.772670 -23052.666067   -823.513658     87.226000
PR19 -13697.615775 -15276.766200 -15165.496997   -236.702644
PR20  -8977.773984   5351.338475 -23268.887907    -94.979774
PR21   2783.007845  21213.949848 -13873.972597    -16.168444
PR22  10498.345825  23184.701065   1832.608626     82.019803
PR24   8927.870719  -6464.371165  23013.500251    -12.445952
PR25    841.488110  20649.486098 -14937.870051     59.017219
EOF
